ONEWEB-0346             
1 49212U 21083AC  24024.36666044  .00000078  00000+0  16588-3 0  9994
2 49212  87.9242 149.5535 0001155 115.0041 245.1211 13.18686874114686
ONEWEB-0348             
1 49213U 21083AD  24024.72924899  .00000145  00000+0  32384-3 0  9997
2 49213  87.9168  88.5078 0001162  82.1859 277.9406 13.20772031122689
ONEWEB-0350             
1 49214U 21083AE  24024.82960146  .00000429  00000+0  11405-2 0  9999
2 49214  87.9014 134.2559 0001308  97.2383 262.8895 13.13469614117450
ONEWEB-0351             
1 49215U 21083AF  24024.72293557  .00000047  00000+0  84614-4 0  9994
2 49215  87.9167  88.5140 0002248  95.0397 265.0993 13.20769964122653
ONEWEB-0352             
1 49216U 21083AG  24024.35350548  .00000215  00000+0  55273-3 0  9993
2 49216  87.9017 134.3773 0001903 103.6434 256.4907 13.13473489116181
ONEWEB-0354             
1 49217U 21083AH  24024.59667044  .00000122  00000+0  26898-3 0  9990
2 49217  87.9171  88.5191 0001800  88.4036 271.7304 13.20770103121369
ONEWEB-0355             
1 49218U 21083AJ  24024.30746262  .00000175  00000+0  44559-3 0  9992
2 49218  87.9019 134.3853 0001658  97.1491 262.9827 13.13469057116056
ONEWEB-0357             
1 49219U 21083AK  24024.59351247  .00000092  00000+0  19458-3 0  9997
2 49219  87.9167  88.5427 0001781  98.8571 261.2764 13.20770501121361
